SAR-LUPE 2              
1 31797U 07030A   26168.86313031  .00006761  00000+0  12242-3 0  9998
2 31797  98.1049 273.3782 0005225 143.0997 217.0612 15.50047479 57046
SAPPHIRE                
1 39088U 13009C   26168.78929389  .00000078  00000+0  42104-4 0  9998
2 39088  98.4261 348.2307 0010094 244.6257 115.3884 14.35240730696663
PRAETORIAN SDA_602      
1 65565U 25203A   26168.67451455  .00000052  00000+0  36187-4 0  9994
2 65565  81.3031  10.3172 0005799 182.5860 177.5268 13.84342855 38762
PRAETORIAN SDA_603      
1 65566U 25203B   26168.62905816  .00000161  00000+0  13468-3 0  9992
2 65566  81.3036  10.2767 0009332 186.2890 173.8151 13.83905125 38762
PRAETORIAN SDA_604      
1 65567U 25203C   26168.64904770  .00000046  00000+0  31363-4 0  9990
2 65567  81.3053  10.6707 0005273 190.1985 169.9065 13.83047507 38748
PRAETORIAN SDA_605      
1 65568U 25203D   26168.61425203  .00000037  00000+0  22693-4 0  9993
2 65568  81.3018  10.3655 0008098 181.8190 178.2939 13.83434198 38752
PRAETORIAN SDA_606      
1 65569U 25203E   26168.30750804  .00000053  00000+0  37439-4 0  9990
2 65569  81.3055  10.8712 0005744 180.4388 179.6764 13.83407378 38708
PRAETORIAN SDA_607      
1 65570U 25203F   26168.67686110  .00000128  00000+0  10437-3 0  9991
2 65570  81.3038  10.1917 0008640 186.1202 173.9851 13.84284564 38779
PRAETORIAN SDA_608      
1 65571U 25203G   26168.65442382  .00000053  00000+0  37314-4 0  9992
2 65571  81.3006  10.3748 0005786 189.4027 170.7022 13.83816912 38758
PRAETORIAN SDA_609      
1 65572U 25203H   26168.65919682  .00000169  00000+0  14119-3 0  9990
2 65572  81.3047  10.3537 0006806 183.2886 176.8227 13.84212188 38760
PRAETORIAN SDA_610      
1 65573U 25203J   26168.63416743  .00000038  00000+0  23153-4 0  9993
2 65573  81.3007  10.3515 0006450 187.2167 172.8897 13.83851906 38758
PRAETORIAN SDA_611      
1 65574U 25203K   26168.63512370 -.00000010  00000+0 -20278-4 0  9994
2 65574  81.3010  10.5162 0005289 193.3135 166.7882 13.83308970 38748
PRAETORIAN SDA_612      
1 65575U 25203L   26168.62417981  .00000171  00000+0  14039-3 0  9999
2 65575  81.3030  10.1121 0008727 185.7227 174.3832 13.85039744 38774
PRAETORIAN SDA_613      
1 65576U 25203M   26168.64204583  .00000039  00000+0  24832-4 0  9990
2 65576  81.2998  10.5076 0005574 182.5581 177.5547 13.82765053 38746
PRAETORIAN SDA_614      
1 65577U 25203N   26168.61343669  .00000018  00000+0  52712-5 0  9993
2 65577  81.3013  10.1999 0007021 182.5171 177.5951 13.84777962 38776
PRAETORIAN SDA_615      
1 65578U 25203P   26168.66270066  .00000166  00000+0  13756-3 0  9996
2 65578  81.3023  10.1185 0008895 183.9706 176.1382 13.84436306 38771
PRAETORIAN SDA_616      
1 65579U 25203Q   26168.63435049  .00000153  00000+0  12826-3 0  9991
2 65579  81.3055  10.6646 0005347 190.6976 169.4067 13.83268879 38746
PRAETORIAN SDA_617      
1 65580U 25203R   26168.65599292  .00000029  00000+0  15687-4 0  9997
2 65580  81.3037  10.4740 0007283 182.7306 177.3811 13.83150070 38750
PRAETORIAN SDA_618      
1 65581U 25203S   26168.62867132  .00000211  00000+0  17699-3 0  9993
2 65581  81.3022  10.0796 0009595 186.4630 173.6404 13.84669422 38777
PRAETORIAN SDA_619      
1 65582U 25203T   26168.66489464  .00000800  00000+0  71207-3 0  9995
2 65582  81.3070  10.3479 0007378 186.7344 173.3714 13.83796221 39391
PRAETORIAN SDA_620      
1 65583U 25203U   26168.62063442  .00000165  00000+0  13841-3 0  9990
2 65583  81.3030  10.4057 0007514 179.8955 180.2204 13.83617948 38752
PRAETORIAN SDA_621      
1 65584U 25203V   26168.66666829  .00000053  00000+0  36867-4 0  9993
2 65584  81.3021  10.2807 0007385 177.2342 182.8856 13.83801316 38768
PRAETORIAN SDA_601      
1 65585U 25203W   26168.63751878 -.00000049  00000+0 -55739-4 0  9996
2 65585  81.3038  10.6040 0005218 194.2436 165.8573 13.83167634 38749
